CCSDS_OMM_VERS = 2.0
CREATION_DATE  = 
ORIGINATOR     = 

OBJECT_NAME    = SL-14 R/B
OBJECT_ID      = 1988-001B
CENTER_NAME    = EARTH
REF_FRAME      = TEME
TIME_SYSTEM    = UTC
MEAN_ELEMENT_THEORY = SGP/SGP4

EPOCH          = 2025-11-30T14:03:41.746176
MEAN_MOTION    = 14.85402543
ECCENTRICITY   = .00173845
INCLINATION    = 82.5121
RA_OF_ASC_NODE = 288.5794
ARG_OF_PERICENTER = 201.4170
MEAN_ANOMALY   = 158.6321

EPHEMERIS_TYPE = 0
CLASSIFICATION_TYPE = U
NORAD_CAT_ID   = 18749
ELEMENT_SET_NO = 999
REV_AT_EPOCH   = 2731
BSTAR          = .65021503E-4
MEAN_MOTION_DOT = .585E-5
MEAN_MOTION_DDOT = 0

CCSDS_OMM_VERS = 2.0
CREATION_DATE  = 
ORIGINATOR     = 

OBJECT_NAME    = COSMOS 1933
OBJECT_ID      = 1988-020A
CENTER_NAME    = EARTH
REF_FRAME      = TEME
TIME_SYSTEM    = UTC
MEAN_ELEMENT_THEORY = SGP/SGP4

EPOCH          = 2025-11-30T13:12:21.275136
MEAN_MOTION    = 15.16954507
ECCENTRICITY   = .00046414
INCLINATION    = 82.5134
RA_OF_ASC_NODE = 348.9230
ARG_OF_PERICENTER = 161.6611
MEAN_ANOMALY   = 198.4790

EPHEMERIS_TYPE = 0
CLASSIFICATION_TYPE = U
NORAD_CAT_ID   = 18958
ELEMENT_SET_NO = 999
REV_AT_EPOCH   = 3519
BSTAR          = .19638278E-3
MEAN_MOTION_DOT = .3904E-4
MEAN_MOTION_DDOT = 0

CCSDS_OMM_VERS = 2.0
CREATION_DATE  = 
ORIGINATOR     = 

OBJECT_NAME    = SL-3 R/B
OBJECT_ID      = 1988-032B
CENTER_NAME    = EARTH
REF_FRAME      = TEME
TIME_SYSTEM    = UTC
MEAN_ELEMENT_THEORY = SGP/SGP4

EPOCH          = 2025-11-30T14:32:33.103680
MEAN_MOTION    = 15.18550212
ECCENTRICITY   = .0025433
INCLINATION    = 97.5067
RA_OF_ASC_NODE = 313.4133
ARG_OF_PERICENTER = 216.1422
MEAN_ANOMALY   = 143.8094

EPHEMERIS_TYPE = 0
CLASSIFICATION_TYPE = U
NORAD_CAT_ID   = 19046
ELEMENT_SET_NO = 999
REV_AT_EPOCH   = 3706
BSTAR          = .26684852E-3
MEAN_MOTION_DOT = .5488E-4
MEAN_MOTION_DDOT = 0

CCSDS_OMM_VERS = 2.0
CREATION_DATE  = 
ORIGINATOR     = 

OBJECT_NAME    = SL-16 R/B
OBJECT_ID      = 1988-039B
CENTER_NAME    = EARTH
REF_FRAME      = TEME
TIME_SYSTEM    = UTC
MEAN_ELEMENT_THEORY = SGP/SGP4

EPOCH          = 2025-11-30T13:21:42.741216
MEAN_MOTION    = 14.19592968
ECCENTRICITY   = .00201633
INCLINATION    = 71.0146
RA_OF_ASC_NODE = 278.1573
ARG_OF_PERICENTER = 136.7256
MEAN_ANOMALY   = 223.5457

EPHEMERIS_TYPE = 0
CLASSIFICATION_TYPE = U
NORAD_CAT_ID   = 19120
ELEMENT_SET_NO = 999
REV_AT_EPOCH   = 94431
BSTAR          = -.20683534E-4
MEAN_MOTION_DOT = -.92E-6
MEAN_MOTION_DDOT = 0

CCSDS_OMM_VERS = 2.0
CREATION_DATE  = 
ORIGINATOR     = 

OBJECT_NAME    = COSMOS 1953
OBJECT_ID      = 1988-050A
CENTER_NAME    = EARTH
REF_FRAME      = TEME
TIME_SYSTEM    = UTC
MEAN_ELEMENT_THEORY = SGP/SGP4

EPOCH          = 2025-11-30T06:03:14.984064
MEAN_MOTION    = 15.26710612
ECCENTRICITY   = .00136818
INCLINATION    = 82.5088
RA_OF_ASC_NODE = 258.1083
ARG_OF_PERICENTER = 109.3442
MEAN_ANOMALY   = 250.9277

EPHEMERIS_TYPE = 0
CLASSIFICATION_TYPE = U
NORAD_CAT_ID   = 19210
ELEMENT_SET_NO = 999
REV_AT_EPOCH   = 2260
BSTAR          = .26356529E-3
MEAN_MOTION_DOT = .6973E-4
MEAN_MOTION_DDOT = 0

CCSDS_OMM_VERS = 2.0
CREATION_DATE  = 
ORIGINATOR     = 

OBJECT_NAME    = SL-8 R/B
OBJECT_ID      = 1988-053B
CENTER_NAME    = EARTH
REF_FRAME      = TEME
TIME_SYSTEM    = UTC
MEAN_ELEMENT_THEORY = SGP/SGP4

EPOCH          = 2025-11-30T16:08:20.073984
MEAN_MOTION    = 14.38846982
ECCENTRICITY   = .00193148
INCLINATION    = 74.0472
RA_OF_ASC_NODE = 294.9599
ARG_OF_PERICENTER = 143.3919
MEAN_ANOMALY   = 29.1662

EPHEMERIS_TYPE = 0
CLASSIFICATION_TYPE = U
NORAD_CAT_ID   = 19257
ELEMENT_SET_NO = 999
REV_AT_EPOCH   = 96235
BSTAR          = .90216275E-4
MEAN_MOTION_DOT = .252E-5
MEAN_MOTION_DDOT = 0

CCSDS_OMM_VERS = 2.0
CREATION_DATE  = 
ORIGINATOR     = 

OBJECT_NAME    = COSMOS 1975
OBJECT_ID      = 1988-093A
CENTER_NAME    = EARTH
REF_FRAME      = TEME
TIME_SYSTEM    = UTC
MEAN_ELEMENT_THEORY = SGP/SGP4

EPOCH          = 2025-11-30T15:39:42.280416
MEAN_MOTION    = 15.26192529
ECCENTRICITY   = .00119622
INCLINATION    = 82.5213
RA_OF_ASC_NODE = 216.9251
ARG_OF_PERICENTER = 150.6841
MEAN_ANOMALY   = 209.5071

EPHEMERIS_TYPE = 0
CLASSIFICATION_TYPE = U
NORAD_CAT_ID   = 19573
ELEMENT_SET_NO = 999
REV_AT_EPOCH   = 429
BSTAR          = .32186747E-3
MEAN_MOTION_DOT = .8372E-4
MEAN_MOTION_DDOT = 0

CCSDS_OMM_VERS = 2.0
CREATION_DATE  = 
ORIGINATOR     = 

OBJECT_NAME    = SL-14 R/B
OBJECT_ID      = 1988-093B
CENTER_NAME    = EARTH
REF_FRAME      = TEME
TIME_SYSTEM    = UTC
MEAN_ELEMENT_THEORY = SGP/SGP4

EPOCH          = 2025-11-30T12:23:30.650208
MEAN_MOTION    = 14.85527792
ECCENTRICITY   = .00209723
INCLINATION    = 82.5294
RA_OF_ASC_NODE = 135.1381
ARG_OF_PERICENTER = 10.5450
MEAN_ANOMALY   = 51.8674

EPHEMERIS_TYPE = 0
CLASSIFICATION_TYPE = U
NORAD_CAT_ID   = 19574
ELEMENT_SET_NO = 999
REV_AT_EPOCH   = 98631
BSTAR          = .62524559E-4
MEAN_MOTION_DOT = .566E-5
MEAN_MOTION_DDOT = 0

CCSDS_OMM_VERS = 2.0
CREATION_DATE  = 
ORIGINATOR     = 

OBJECT_NAME    = SL-16 R/B
OBJECT_ID      = 1988-102B
CENTER_NAME    = EARTH
REF_FRAME      = TEME
TIME_SYSTEM    = UTC
MEAN_ELEMENT_THEORY = SGP/SGP4

EPOCH          = 2025-11-30T12:30:14.222880
MEAN_MOTION    = 14.16137246
ECCENTRICITY   = .00135941
INCLINATION    = 71.0007
RA_OF_ASC_NODE = 0.1535
ARG_OF_PERICENTER = 171.8480
MEAN_ANOMALY   = 188.2867

EPHEMERIS_TYPE = 0
CLASSIFICATION_TYPE = U
NORAD_CAT_ID   = 19650
ELEMENT_SET_NO = 999
REV_AT_EPOCH   = 91285
BSTAR          = .20841195E-4
MEAN_MOTION_DOT = -.7E-7
MEAN_MOTION_DDOT = 0

CCSDS_OMM_VERS = 2.0
CREATION_DATE  = 
ORIGINATOR     = 

OBJECT_NAME    = INTERCOSMOS 24
OBJECT_ID      = 1989-080A
CENTER_NAME    = EARTH
REF_FRAME      = TEME
TIME_SYSTEM    = UTC
MEAN_ELEMENT_THEORY = SGP/SGP4

EPOCH          = 2025-11-30T12:12:46.603872
MEAN_MOTION    = 12.59405000
ECCENTRICITY   = .11886747
INCLINATION    = 82.6044
RA_OF_ASC_NODE = 168.9054
ARG_OF_PERICENTER = 162.8852
MEAN_ANOMALY   = 201.6234

EPHEMERIS_TYPE = 0
CLASSIFICATION_TYPE = U
NORAD_CAT_ID   = 20261
ELEMENT_SET_NO = 999
REV_AT_EPOCH   = 65431
BSTAR          = .23212643E-3
MEAN_MOTION_DOT = .808E-5
MEAN_MOTION_DDOT = 0

CCSDS_OMM_VERS = 2.0
CREATION_DATE  = 
ORIGINATOR     = 

OBJECT_NAME    = SL-14 R/B
OBJECT_ID      = 1989-080C
CENTER_NAME    = EARTH
REF_FRAME      = TEME
TIME_SYSTEM    = UTC
MEAN_ELEMENT_THEORY = SGP/SGP4

EPOCH          = 2025-11-30T12:04:41.004768
MEAN_MOTION    = 12.50397633
ECCENTRICITY   = .12308586
INCLINATION    = 82.5939
RA_OF_ASC_NODE = 236.8737
ARG_OF_PERICENTER = 51.5479
MEAN_ANOMALY   = 318.9750

EPHEMERIS_TYPE = 0
CLASSIFICATION_TYPE = U
NORAD_CAT_ID   = 20262
ELEMENT_SET_NO = 999
REV_AT_EPOCH   = 64775
BSTAR          = .13171888E-3
MEAN_MOTION_DOT = .463E-5
MEAN_MOTION_DDOT = 0

CCSDS_OMM_VERS = 2.0
CREATION_DATE  = 
ORIGINATOR     = 

OBJECT_NAME    = DELTA 1 R/B
OBJECT_ID      = 1989-089B
CENTER_NAME    = EARTH
REF_FRAME      = TEME
TIME_SYSTEM    = UTC
MEAN_ELEMENT_THEORY = SGP/SGP4

EPOCH          = 2025-11-30T15:17:35.371680
MEAN_MOTION    = 14.50556334
ECCENTRICITY   = .00706679
INCLINATION    = 97.0760
RA_OF_ASC_NODE = 192.7923
ARG_OF_PERICENTER = 75.8433
MEAN_ANOMALY   = 285.0604

EPHEMERIS_TYPE = 0
CLASSIFICATION_TYPE = U
NORAD_CAT_ID   = 20323
ELEMENT_SET_NO = 999
REV_AT_EPOCH   = 88137
BSTAR          = .10448468E-3
MEAN_MOTION_DOT = .388E-5
MEAN_MOTION_DDOT = 0

