SL-14 R/B               
1 18749U 88001B   25334.58589984  .00000585  00000+0  65022-4 0  9995
2 18749  82.5121 288.5794 0017384 201.4170 158.6321 14.85402543 27316
COSMOS 1933             
1 18958U 88020A   25334.55024624  .00003904  00000+0  19638-3 0  9999
2 18958  82.5134 348.9230 0004641 161.6611 198.4790 15.16954507 35191
SL-3 R/B                
1 19046U 88032B   25334.60593870  .00005488  00000+0  26685-3 0  9990
2 19046  97.5067 313.4133 0025433 216.1422 143.8094 15.18550212 37064
SL-16 R/B               
1 19120U 88039B   25334.55674469 -.00000092  00000+0 -20684-4 0  9990
2 19120  71.0146 278.1573 0020163 136.7256 223.5457 14.19592968944312
COSMOS 1953             
1 19210U 88050A   25334.25225676  .00006973  00000+0  26357-3 0  9996
2 19210  82.5088 258.1083 0013681 109.3442 250.9277 15.26710612 22608
SL-8 R/B                
1 19257U 88053B   25334.67245456  .00000252  00000+0  90216-4 0  9994
2 19257  74.0472 294.9599 0019314 143.3919  29.1662 14.38846982962359
COSMOS 1975             
1 19573U 88093A   25334.65257269  .00008372  00000+0  32187-3 0  9995
2 19573  82.5213 216.9251 0011962 150.6841 209.5071 15.26192529  4299
SL-14 R/B               
1 19574U 88093B   25334.51632697  .00000566  00000+0  62525-4 0  9990
2 19574  82.5294 135.1381 0020972  10.5450  51.8674 14.85527792986313
SL-16 R/B               
1 19650U 88102B   25334.52099795 -.00000007  00000+0  20841-4 0  9999
2 19650  71.0007   0.1535 0013594 171.8480 188.2867 14.16137246912853
INTERCOSMOS 24          
1 20261U 89080A   25334.50887273  .00000808  00000+0  23213-3 0  9992
2 20261  82.6044 168.9054 1188674 162.8852 201.6234 12.59405000654310
SL-14 R/B               
1 20262U 89080C   25334.50325237  .00000463  00000+0  13172-3 0  9990
2 20262  82.5939 236.8737 1230858  51.5479 318.9750 12.50397633647755
DELTA 1 R/B             
1 20323U 89089B   25334.63721495  .00000388  00000+0  10448-3 0  9996
2 20323  97.0760 192.7923 0070667  75.8433 285.0604 14.50556334881378
